NORAD_CAT_ID,OBJECT_NAME,OBJECT_TYPE,EPOCH,MEAN_MOTION,ECCENTRICITY,INCLINATION,RA_OF_ASC_NODE,ARG_OF_PERICENTER,MEAN_ANOMALY,BSTAR,MEAN_MOTION_DOT,MEAN_MOTION_DDOT,TLE_LINE0,TLE_LINE1,TLE_LINE2,SEMIMAJOR_AXIS,PERIOD,APOGEE,PERIGEE,DECAYED
51772.0,STARLINK-3623,PAYLOAD,2024-03-01 03:47:42,15.08833337,0.0001531,53.2171,54.5193,96.4578,263.6589,7.629e-05,9.26e-06,0.0,0 STARLINK-3623,1 51772U 22017E   24061.15813537  .00000926  00000-0  76290-4 0  9995,2 51772  53.2171  54.5193 0001531  96.4578 263.6589 15.08833337112610,6917.901,95.438,540.825,538.707,0.0
51772.0,STARLINK-3623,PAYLOAD,2024-03-01 06:58:28,15.08837815,0.0001609,53.2167,53.9233,97.5412,262.5763,3.8786e-05,3.29e-06,0.0,0 STARLINK-3623,1 51772U 22017E   24061.29061320  .00000329  00000-0  38786-4 0  9990,2 51772  53.2167  53.9233 0001609  97.5412 262.5763 15.08837815111120,6917.887,95.438,540.865,538.639,0.0
51772.0,STARLINK-3623,PAYLOAD,2024-03-01 16:30:47,15.08843331,0.0001397,53.2171,52.1383,88.8269,271.2883,0.00013044,1.789e-05,0.0,0 STARLINK-3623,1 51772U 22017E   24061.68805181  .00001789  00000-0  13044-3 0  9994,2 51772  53.2171  52.1383 0001397  88.8269 271.2883 15.08843331112692,6917.87,95.437,540.702,538.769,0.0
51772.0,STARLINK-3623,PAYLOAD,2024-03-02 03:38:29,15.08834386,0.0001438,53.2171,50.0566,93.2328,266.8829,0.0002644,3.922e-05,0.0,0 STARLINK-3623,1 51772U 22017E   24062.15173607  .00003922  00000-0  26440-3 0  9993,2 51772  53.2171  50.0566 0001438  93.2328 266.8829 15.08834386112762,6917.898,95.438,540.757,538.768,0.0
51772.0,STARLINK-3623,PAYLOAD,2024-03-02 06:49:15,15.08849282,0.0001486,53.2174,49.4621,87.9507,272.1656,9.8495e-05,1.28e-05,0.0,0 STARLINK-3623,1 51772U 22017E   24062.28420852  .00001280  00000-0  98495-4 0  9999,2 51772  53.2174  49.4621 0001486  87.9507 272.1656 15.08849282112782,6917.852,95.437,540.745,538.689,0.0
51772.0,STARLINK-3623,PAYLOAD,2024-03-03 05:04:39,15.08845781,0.0001437,53.2172,45.3003,95.6448,264.4708,9.9316e-05,1.293e-05,0.0,0 STARLINK-3623,1 51772U 22017E   24063.21156985  .00001293  00000-0  99316-4 0  9993,2 51772  53.2172  45.3003 0001437  95.6448 264.4708 15.08845781112923,6917.863,95.437,540.722,538.734,0.0
51772.0,STARLINK-3623,PAYLOAD,2024-03-03 08:15:25,15.08850822,0.0001432,53.2178,44.7029,98.2957,261.8198,0.00014161,1.967e-05,0.0,0 STARLINK-3623,1 51772U 22017E   24063.34404513  .00001967  00000-0  14161-3 0  9992,2 51772  53.2178  44.7029 0001432  98.2957 261.8198 15.08850822111430,6917.847,95.437,540.703,538.722,0.0
51772.0,STARLINK-3623,PAYLOAD,2024-03-04 04:55:26,15.08846055,0.0001844,53.2188,40.8384,88.5884,271.5319,9.7356e-05,1.262e-05,0.0,0 STARLINK-3623,1 51772U 22017E   24064.20516974  .00001262  00000-0  97356-4 0  9999,2 51772  53.2188  40.8384 0001844  88.5884 271.5319 15.08846055111560,6917.862,95.437,541.003,538.451,0.0
51772.0,STARLINK-3623,PAYLOAD,2024-03-05 03:10:51,15.08836285,0.0001545,53.2182,36.675,115.4215,244.6937,-4.0676e-05,-9.35e-06,0.0,0 STARLINK-3623,1 51772U 22017E   24065.13253473 -.00000935  00000-0 -40676-4 0  9995,2 51772  53.2182  36.6750 0001545 115.4215 244.6937 15.08836285113215,6917.892,95.438,540.826,538.688,0.0
51772.0,STARLINK-3623,PAYLOAD,2024-03-05 07:57:00,15.08837902,0.0001335,53.2177,35.7815,105.8501,254.2638,1.6407e-05,-2.7e-07,0.0,0 STARLINK-3623,1 51772U 22017E   24065.33125479 -.00000027  00000-0  16407-4 0  9997,2 51772  53.2177  35.7815 0001335 105.8501 254.2638 15.08837902111736,6917.887,95.438,540.675,538.828,0.0
51772.0,STARLINK-3623,PAYLOAD,2024-03-06 07:47:47,15.08845943,0.0001273,53.2174,31.3204,97.4853,262.6283,0.00013163,1.808e-05,0.0,0 STARLINK-3623,1 51772U 22017E   24066.32485333  .00001808  00000-0  13163-3 0  9997,2 51772  53.2174  31.3204 0001273  97.4853 262.6283 15.08845943113391,6917.862,95.437,540.608,538.847,0.0
51772.0,STARLINK-3623,PAYLOAD,2024-03-07 04:27:48,15.08841198,0.0001082,53.2172,27.4569,81.1773,278.9341,0.00013515,1.864e-05,0.0,0 STARLINK-3623,1 51772U 22017E   24067.18597752  .00001864  00000-0  13515-3 0  9994,2 51772  53.2172  27.4569 0001082  81.1773 278.9341 15.08841198113526,6917.877,95.437,540.49,538.993,0.0
51772.0,STARLINK-3623,PAYLOAD,2024-03-07 14:00:07,15.088331,0.0001098,53.2164,25.6742,91.7218,268.39,0.00020978,3.052e-05,0.0,0 STARLINK-3623,1 51772U 22017E   24067.58342341  .00003052  00000-0  20978-3 0  9992,2 51772  53.2164  25.6742 0001098  91.7218 268.3900 15.08833100112075,6917.901,95.438,540.526,539.007,0.0
51772.0,STARLINK-3623,PAYLOAD,2024-03-08 02:43:12,15.08836379,0.0001414,53.2176,23.2903,83.7208,276.3945,1.276e-05,-8.5e-07,0.0,0 STARLINK-3623,1 51772U 22017E   24068.11334236 -.00000085  00000-0  12760-4 0  9991,2 51772  53.2176  23.2903 0001414  83.7208 276.3945 15.08836379113668,6917.891,95.438,540.735,538.778,0.0
51772.0,STARLINK-3623,PAYLOAD,2024-03-08 05:53:58,15.08844061,0.0001477,53.2193,22.6976,89.5854,270.5307,6.9653e-05,8.21e-06,0.0,0 STARLINK-3623,1 51772U 22017E   24068.24581812  .00000821  00000-0  69653-4 0  9999,2 51772  53.2193  22.6976 0001477  89.5854 270.5307 15.08844061113687,6917.868,95.437,540.755,538.711,0.0
51772.0,STARLINK-3623,PAYLOAD,2024-03-08 13:50:54,15.08845676,0.0001593,53.2197,21.2112,81.4735,278.6438,8.7996e-05,1.113e-05,0.0,0 STARLINK-3623,1 51772U 22017E   24068.57701770  .00001113  00000-0  87996-4 0  9997,2 51772  53.2197  21.2112 0001593  81.4735 278.6438 15.08845676112222,6917.863,95.437,540.83,538.626,0.0
51772.0,STARLINK-3623,PAYLOAD,2024-03-09 13:41:41,15.08848304,0.0001285,53.2191,16.7502,81.948,278.1658,-0.00032361,-5.436e-05,0.0,0 STARLINK-3623,1 51772U 22017E   24069.57061343 -.00005436  00000-0 -32361-3 0  9992,2 51772  53.2191  16.7502 0001285  81.9480 278.1658 15.08848304112374,6917.855,95.437,540.609,538.831,0.0
51772.0,STARLINK-3623,PAYLOAD,2024-03-10 02:24:47,15.08832231,0.0001212,53.2199,14.371,95.4641,264.649,-2.3106e-05,-6.55e-06,0.0,0 STARLINK-3623,1 51772U 22017E   24070.10054584 -.00000655  00000-0 -23106-4 0  9998,2 51772  53.2199  14.3710 0001212  95.4641 264.6490 15.08832231113968,6917.904,95.438,540.608,538.931,0.0
51772.0,STARLINK-3623,PAYLOAD,2024-03-10 13:32:28,15.08843892,0.0001245,53.2172,12.2905,98.2583,261.8551,6.3261e-05,7.19e-06,0.0,0 STARLINK-3623,1 51772U 22017E   24070.56422029  .00000719  00000-0  63261-4 0  9996,2 51772  53.2172  12.2905 0001245  98.2583 261.8551 15.08843892112527,6917.868,95.437,540.595,538.872,0.0
51772.0,STARLINK-3623,PAYLOAD,2024-03-10 19:54:01,15.08841328,0.0001348,53.2167,11.1012,95.5218,264.5928,0.00012456,1.695e-05,0.0,0 STARLINK-3623,1 51772U 22017E   24070.82918250  .00001695  00000-0  12456-3 0  9994,2 51772  53.2167  11.1012 0001348  95.5218 264.5928 15.08841328114079,6917.876,95.437,540.674,538.809,0.0
51772.0,STARLINK-3623,PAYLOAD,2024-03-11 13:23:15,15.08841668,0.0001336,53.2163,7.8289,108.1365,251.9772,4.1179e-05,3.68e-06,0.0,0 STARLINK-3623,1 51772U 22017E   24071.55782167  .00000368  00000-0  41179-4 0  9992,2 51772  53.2163   7.8289 0001336 108.1365 251.9772 15.08841668112672,6917.875,95.437,540.665,538.816,0.0
51772.0,STARLINK-3623,PAYLOAD,2024-03-11 19:44:49,15.08834903,0.0002286,53.2157,6.6411,91.3366,268.7888,0.00013669,1.888e-05,0.0,0 STARLINK-3623,1 51772U 22017E   24071.82279039  .00001888  00000-0  13669-3 0  9991,2 51772  53.2157   6.6411 0002286  91.3366 268.7888 15.08834903114229,6917.896,95.438,541.342,538.18,0.0
51772.0,STARLINK-3623,PAYLOAD,2024-03-12 02:06:22,15.0882214,0.0001483,53.2176,5.4518,100.6146,259.5013,-0.00013175,-2.383e-05,0.0,0 STARLINK-3623,1 51772U 22017E   24072.08775725 -.00002383  00000-0 -13175-3 0  9998,2 51772  53.2176   5.4518 0001483 100.6146 259.5013 15.08822140114265,6917.935,95.439,540.826,538.774,0.0
51772.0,STARLINK-3623,PAYLOAD,2024-03-12 05:17:08,15.0882294,0.0001526,53.2176,4.8563,104.9239,255.1922,-0.00010411,-1.944e-05,0.0,0 STARLINK-3623,1 51772U 22017E   24072.22023812 -.00001944  00000-0 -10411-3 0  9999,2 51772  53.2176   4.8563 0001526 104.9239 255.1922 15.08822940112779,6917.933,95.439,540.853,538.742,0.0
51772.0,STARLINK-3623,PAYLOAD,2024-03-13 05:07:54,15.08849489,0.0001685,53.2184,0.3953,107.4039,252.7137,0.00017637,2.521e-05,0.0,0 STARLINK-3623,1 51772U 22017E   24073.21382667  .00002521  00000-0  17637-3 0  9992,2 51772  53.2184   0.3953 0001685 107.4039 252.7137 15.08849489114437,6917.851,95.437,540.882,538.551,0.0
51772.0,STARLINK-3623,PAYLOAD,2024-03-13 19:26:23,15.08848828,0.0001878,53.2179,357.7192,111.2407,248.8786,0.00042724,6.52e-05,0.0,0 STARLINK-3623,1 51772U 22017E   24073.80998971  .00006520  00000-0  42724-3 0  9996,2 51772  53.2179 357.7192 0001878 111.2407 248.8786 15.08848828114523,6917.853,95.437,541.018,538.419,0.0
51772.0,STARLINK-3623,PAYLOAD,2024-03-13 22:37:09,15.08852958,0.0001787,53.2179,357.1217,114.6655,245.4523,0.00042345,6.46e-05,0.0,0 STARLINK-3623,1 51772U 22017E   24073.94246669  .00006460  00000-0  42345-3 0  9993,2 51772  53.2179 357.1217 0001787 114.6655 245.4523 15.08852958113032,6917.841,95.437,540.942,538.47,0.0
51772.0,STARLINK-3623,PAYLOAD,2024-03-14 00:12:32,15.08854848,0.0001761,53.2179,356.8243,110.3049,249.8132,0.00042851,6.541e-05,0.0,0 STARLINK-3623,1 51772U 22017E   24074.00870578  .00006541  00000-0  42851-3 0  9995,2 51772  53.2179 356.8243 0001761 110.3049 249.8132 15.08854848113044,6917.835,95.437,540.918,538.482,0.0
51772.0,STARLINK-3623,PAYLOAD,2024-03-14 22:27:55,15.08847346,0.0001908,53.2171,352.6593,123.5107,236.6068,8.0576e-05,9.95e-06,0.0,0 STARLINK-3623,1 51772U 22017E   24074.93606238  .00000995  00000-0  80576-4 0  9991,2 51772  53.2171 352.6593 0001908 123.5107 236.6068 15.08847346113184,6917.858,95.437,541.043,538.403,0.0
51772.0,STARLINK-3623,PAYLOAD,2024-03-15 00:03:19,15.08846277,0.0001482,53.2174,352.3668,100.2649,259.851,2.2683e-05,7.3e-07,0.0,0 STARLINK-3623,1 51772U 22017E   24075.00230414  .00000073  00000-0  22683-4 0  9991,2 51772  53.2174 352.3668 0001482 100.2649 259.8510 15.08846277114707,6917.861,95.437,540.751,538.701,0.0
